NIMIQ 6                 
1 38342U 12026A   17162.53079411 -.00000172  00000-0  00000-0 0  9999
2 38342   0.0187  49.7434 0002749  22.6100 287.6815  1.00271572 17428
CHINASAT 2A (ZX 2A)     
1 38352U 12028A   17163.84698687 -.00000292  00000-0  00000-0 0  9992
2 38352   0.0470 215.0725 0002541 161.0899 288.3901  1.00274111 18638
INTELSAT 19 (IS-19)     
1 38356U 12030A   17163.81310270 -.00000056  00000-0  00000-0 0  9993
2 38356   0.0213  31.2486 0002620  49.6318 279.1545  1.00271723 18519
ECHOSTAR 17             
1 38551U 12035A   17162.57507419 -.00000074  00000-0  00000-0 0  9990
2 38551   0.0234 350.8615 0001955  92.0219 277.1388  1.00270097 18061
METEOSAT-10 (MSG-3)     
1 38552U 12035B   17163.27524627 -.00000004  00000-0  00000-0 0  9992
2 38552   0.8667 352.0008 0002318 131.5430 236.4859  1.00266556 17883
SES-5                   
1 38652U 12036A   17163.22842727  .00000035  00000-0  00000-0 0  9996
2 38652   0.0392 274.2738 0002268 161.8024 271.8735  1.00271562 11495
TIANLIAN 1-03           
1 38730U 12040A   17163.24625207  .00000073  00000-0  00000-0 0  9994
2 38730   0.1131 268.5829 0003508 196.2514 255.2100  1.00268848 17980
INTELSAT 20 (IS-20)     
1 38740U 12043A   17162.08856077 -.00000024  00000-0  00000-0 0  9997
2 38740   0.0356 122.6341 0000320  39.4056 197.9659  1.00272072 17756
HYLAS 2                 
1 38741U 12043B   17163.18973168  .00000155  00000-0  00000-0 0  9995
2 38741   0.0137  54.3073 0002443  35.3452 270.3805  1.00272729 17769
INTELSAT 21 (IS-21)     
1 38749U 12045A   17163.43632478 -.00000283  00000-0  00000-0 0  9992
2 38749   0.0157  58.8220 0002316  22.6522 278.5572  1.00272214 17544
ASTRA 2F                
1 38778U 12051A   17163.19754265  .00000151  00000-0  00000-0 0  9996
2 38778   0.0758 242.0930 0001307 272.8487 205.0698  1.00270727  8165
GSAT-10                 
1 38779U 12051B   17163.04561333 -.00000165  00000-0  00000-0 0  9999
2 38779   0.0711 102.8719 0003070 333.1060 284.0613  1.00271817 17110
INTELSAT 23 (IS-23)     
1 38867U 12057A   17162.42518111 -.00000283  00000-0  00000-0 0  9991
2 38867   0.0155  44.3151 0002032  38.0091 277.7037  1.00272475 16997
BEIDOU G6               
1 38953U 12059A   17163.26248784 -.00000175  00000-0  00000-0 0  9998
2 38953   1.6461  80.1745 0003080 149.4589 209.6942  1.00270996 17042
LUCH 5B                 
1 38977U 12061A   17163.95237260 -.00000131  00000-0  00000-0 0  9992
2 38977   3.5360  74.5711 0003594 346.2273 167.1755  1.00271362 17176
YAMAL 300K              
1 38978U 12061B   17163.76521133  .00000072  00000-0  00000-0 0  9990
2 38978   0.0082  48.1830 0000346 105.0932 206.4563  1.00269741 16872
STAR ONE C3             
1 38991U 12062A   17163.94802316 -.00000248  00000-0  00000-0 0  9997
2 38991   0.0847  90.7425 0001706 353.0155  83.9936  1.00272545 16779
EUTELSAT 21B            
1 38992U 12062B   17162.21858023  .00000131  00000-0  00000-0 0  9993
2 38992   0.0637   7.7738 0002099  68.8138 283.4406  1.00270238 16844
ECHOSTAR 16             
1 39008U 12065A   17163.44604039 -.00000280  00000-0  00000-0 0  9993
2 39008   0.0223 343.2057 0002091 105.4765 271.3418  1.00273452 16808
CHINASAT 12 (ZX 12)     
1 39017U 12067A   17163.76226709 -.00000206  00000-0  00000-0 0  9992
2 39017   0.0120  37.4189 0003180  46.8021 178.9751  1.00273017 16501
EUTELSAT 70B            
1 39020U 12069A   17163.08039785 -.00000043  00000-0  00000-0 0  9998
2 39020   0.0691  34.0151 0002770  77.3866 248.6329  1.00272156 16509
YAMAL 402               
1 39022U 12070A   17163.72798072  .00000087  00000-0  10000-3 0  9995
2 39022   0.0166  34.0824 0002834  52.3507 131.7742  1.00272557 16596
SKYNET 5D               
1 39034U 12075A   17163.86261187  .00000100  00000-0  00000-0 0  9992
2 39034   0.0688 349.8069 0003559  96.9401 177.9369  1.00270101 16161
MEXSAT 3                
1 39035U 12075B   17162.59638457 -.00000024  00000-0  00000-0 0  9996
2 39035   0.0425 202.6886 0001854 237.8406 279.4967  1.00270681 16166
TDRS 11                 
1 39070U 13004A   17163.66284461  .00000094  00000-0  00000-0 0  9995
2 39070   5.4000 328.6764 0008077 302.2356  57.7407  1.00268095 13699
AMAZONAS 3              
1 39078U 13006A   17163.44451910 -.00000281  00000-0  00000-0 0  9995
2 39078   0.0444 188.1690 0001871 282.7958 249.0604  1.00272671 15964
AZERSPACE 1             
1 39079U 13006B   17163.14824880  .00000134  00000-0  00000-0 0  9999
2 39079   0.0132  33.9445 0002211  59.7612 266.3247  1.00270283 15807
EUTELSAT 117 WEST A     
1 39122U 13012A   17162.60186167 -.00000011  00000-0  00000-0 0  9999
2 39122   0.0277   6.6115 0002442  71.9953 281.4206  1.00269226 15445
ANIK G1                 
1 39127U 13014A   17162.57559330 -.00000073  00000-0  00000-0 0  9996
2 39127   0.0187 345.5387 0000848  68.4273 306.0469  1.00272478 15246
CHINASAT 11 (ZX 11)     
1 39157U 13020A   17163.97771443 -.00000290  00000-0  00000-0 0  9993
2 39157   0.0058 341.1964 0002017 336.4190  33.8535  1.00270420 15148
EUTELSAT 7B             
1 39163U 13022A   17163.25631337  .00000049  00000-0  00000-0 0  9991
2 39163   0.0566  45.8256 0003991 353.8854 320.3233  1.00271912 14991
SES-6                   
1 39172U 13026A   17163.87320167 -.00000260  00000-0  00000-0 0  9995
2 39172   0.0198 358.8657 0002333  81.6237  94.7514  1.00272314 14737
IRNSS-1A                
1 39199U 13034A   17161.44712804  .00000104  00000-0  00000-0 0  9993
2 39199  28.8096 115.1501 0018804 188.9152 170.9381  1.00275188 14348
ALPHASAT                
1 39215U 13038A   17163.28616061  .00000138  00000-0  00000-0 0  9995
2 39215   1.6931  29.1265 0002739  36.0920 323.4174  1.00269950 14267
INSAT-3D                
1 39216U 13038B   17163.04810748 -.00000155  00000-0  00000-0 0  9998
2 39216   0.0231  62.3922 0000570  12.1998 285.4193  1.00270545 14118
EUTELSAT 25B            
1 39233U 13044A   17163.20498522  .00000144  00000-0  00000-0 0  9991
2 39233   0.0458 350.7794 0001816  98.0652 271.1814  1.00273755 13895
GSAT-7                  
1 39234U 13044B   17163.07051815 -.00000076  00000-0  00000-0 0  9992
2 39234   0.0136 326.9809 0000604 321.8657  71.1469  1.00269956 12348
AMOS-4                  
1 39237U 13045A   17163.09551992  .00000008  00000-0  00000-0 0  9993
2 39237   0.0196 276.5006 0001119 142.1231 301.3923  1.00273163 13956
ASTRA 2E                
1 39285U 13056A   17163.19682290  .00000151  00000-0  00000-0 0  9994
2 39285   0.0583 345.4832 0002107  94.0746 280.4713  1.00268956 13460
SIRIUS FM-6             
1 39360U 13058A   17162.59993372 -.00000015  00000-0  00000-0 0  9999
2 39360   0.0249 348.4537 0001380 232.7401 138.7958  1.00268159 13167
RADUGA-1M 3             
1 39375U 13062A   17163.72837711 -.00000038  00000-0  00000-0 0  9995
2 39375   0.0260  96.6409 0003563 353.2375 143.5840  1.00272931 13123
SES-8                   
1 39460U 13071A   17163.01253079 -.00000269  00000-0  00000-0 0  9997
2 39460   0.0133 302.3752 0003268 144.5788 273.0885  1.00271230 11516
INMARSAT 5-F1           
1 39476U 13073A   17163.86000003  .00000029  00000-0  00000-0 0  9999
2 39476   0.0181 351.2719 0000131 191.8278  90.4691  1.00272620 12596
TKSAT-1 (TUPAC KATARI)  
1 39481U 13075A   17163.60535444 -.00000193  00000-0  00000-0 0  9994
2 39481   0.0403 195.5848 0002483 225.4990 330.7603  1.00273818 12580
EXPRESS-AM5             
1 39487U 13077A   17162.88767919 -.00000279  00000-0  00000-0 0  9990
2 39487   0.0418 193.0530 0000881 156.3116  10.6385  1.00273500 13361
GSAT-14                 
1 39498U 14001A   17163.07070129 -.00000076  00000-0  00000-0 0  9997
2 39498   0.0340 103.9725 0005078 336.4848 279.6053  1.00271615 12441
THAICOM 6               
1 39500U 14002A   17163.78882927 -.00000120  00000-0  00000-0 0  9997
2 39500   0.0818 119.9624 0003771 352.6392 151.1693  1.00270456 12516
TDRS 12                 
1 39504U 14004A   17163.32270738 -.00000269  00000-0  00000-0 0  9998
2 39504   5.9831 336.1070 0000782  71.2779 288.7556  1.00274920 11276
ABS-2                   
1 39508U 14006A   17163.06819258 -.00000085  00000-0  00000-0 0  9997
2 39508   0.0349  47.5871 0002932  37.4800 274.9714  1.00271637 12311
ATHENA-FIDUS            
1 39509U 14006B   17163.17094601  .00000155  00000-0  00000-0 0  9994
2 39509   0.0113 329.3729 0001507 118.1046 272.5449  1.00271013 12496
TURKSAT 4A              
1 39522U 14007A   17163.15927117  .00000147  00000-0  00000-0 0  9996
2 39522   0.0302 282.2909 0000598 145.5618 292.1587  1.00273722 11990
EXPRESS-AT1             
1 39612U 14010A   17163.09032669  .00000079  00000-0  00000-0 0  9996
2 39612   0.0185 264.0675 0000867 222.7482 222.3227  1.00273824 12038
EXPRESS-AT2             
1 39613U 14010B   17161.08134385 -.00000281  00000-0  00000-0 0  9998
2 39613   0.0286 209.8723 0000459 305.1714 272.7013  1.00271494 11855
AMAZONAS 4A             
1 39616U 14011A   17163.44460052 -.00000281  00000-0  00000-0 0  9997
2 39616   0.0973  80.0928 0005426 347.7903 292.1797  1.00270726 11861
ASTRA 5B                
1 39617U 14011B   17163.79890973  .00000156  00000-0  00000-0 0  9995
2 39617   0.0369 334.8139 0003923 118.0657 127.5369  1.00275737 11863
IRNSS-1B                
1 39635U 14017A   17161.94560528  .00000066  00000-0  00000-0 0  9996
2 39635  29.0993 295.0033 0021508 179.3483 180.6418  1.00277103 11789
LUCH 5V                 
1 39727U 14023A   17163.97475638 -.00000267  00000-0  00000-0 0  9991
2 39727   2.7133 298.9654 0002168 150.2760 257.9103  1.00271294529523
KAZSAT-3                
1 39728U 14023B   17163.11356622  .00000061  00000-0  00000-0 0  9990
2 39728   0.0103   4.7890 0000773 133.7201 221.5017  1.00271442  9443
EUTELSAT 3B             
1 39773U 14030A   17163.79820841  .00000021  00000-0  00000-0 0  9997
2 39773   0.0602  15.9899 0002525  78.2947  97.4690  1.00271881 11073
